LEMUR-2-PETERG          
1 42841U 17042S   26068.48235713  .00023240  00000+0  81076-3 0  9993
2 42841  97.3980 253.6596 0003700 341.6938  18.4169 15.29611459473171
STARLINK-33571          
1 63386U 25063Z   26068.37520697  .00029972  00000+0  10210-2 0  9997
2 63386  53.1613  64.3869 0001478  63.3913 296.7239 15.30168212 54510
