[{"OBJECT_NAME":"LEMUR-2-PETERG","OBJECT_ID":"2017-042S","EPOCH":"2026-03-09T11:34:35.656032","MEAN_MOTION":15.29611459,"ECCENTRICITY":0.00037,"INCLINATION":97.398,"RA_OF_ASC_NODE":253.6596,"ARG_OF_PERICENTER":341.6938,"MEAN_ANOMALY":18.4169,"EPHEMERIS_TYPE":0,"CLASSIFICATION_TYPE":"U","NORAD_CAT_ID":42841,"ELEMENT_SET_NO":999,"REV_AT_EPOCH":47317,"BSTAR":0.00081076471,"MEAN_MOTION_DOT":0.0002324,"MEAN_MOTION_DDOT":0},{"OBJECT_NAME":"STARLINK-33571","OBJECT_ID":"2025-063Z","EPOCH":"2026-03-09T09:00:17.882208","MEAN_MOTION":15.30168212,"ECCENTRICITY":0.00014785,"INCLINATION":53.1613,"RA_OF_ASC_NODE":64.3869,"ARG_OF_PERICENTER":63.3913,"MEAN_ANOMALY":296.7239,"EPHEMERIS_TYPE":0,"CLASSIFICATION_TYPE":"U","NORAD_CAT_ID":63386,"ELEMENT_SET_NO":999,"REV_AT_EPOCH":5451,"BSTAR":0.0010210016,"MEAN_MOTION_DOT":0.00029972,"MEAN_MOTION_DDOT":0}]
